{
  "type": "FeatureCollection",
  "features": [
    {
      "type": "Feature",
      "properties": {
        "norad_id": 67045,
        "name": "STARLINK-35891",
        "group": "last-30-days",
        "lat": -2.477861764193935,
        "lon": -41.040305521860134,
        "alt_km": 304.91515727830483,
        "timestamp": "2025-12-20T05:41:48.745661+00:00",
        "meta_object_name": "STARLINK-35891",
        "meta_object_id": "2025-294R",
        "meta_epoch": "2025-12-19T22:00:01.999584",
        "meta_mean_motion": 15.90152457,
        "meta_eccentricity": 0.00016496,
        "meta_inclination": 42.9998,
        "meta_ra_of_asc_node": 138.2863,
        "meta_arg_of_pericenter": 279.461,
        "meta_mean_anomaly": 226.6713,
        "meta_ephemeris_type": 0,
        "meta_classification_type": "U",
        "meta_norad_cat_id": 67045,
        "meta_element_set_no": 999,
        "meta_rev_at_epoch": 138,
        "meta_bstar": -0.0051254131,
        "meta_mean_motion_dot": -0.01405138,
        "meta_mean_motion_ddot": 0,
        "tle_line1": "1 67045U 25294R   25353.91668981 -.01405138  00000+0 -51254-2 0  9992",
        "tle_line2": "2 67045  42.9998 138.2863 0001649 279.4610 226.6713 15.90152457  1383"
      },
      "geometry": {
        "type": "Point",
        "coordinates": [
          -41.040305521860134,
          -2.477861764193935
        ]
      }
    },
    {
      "type": "Feature",
      "properties": {
        "norad_id": 67046,
        "name": "STARLINK-35721",
        "group": "last-30-days",
        "lat": -3.9602679704347388,
        "lon": -39.44678695335423,
        "alt_km": 304.9073075196775,
        "timestamp": "2025-12-20T05:41:48.745671+00:00",
        "meta_object_name": "STARLINK-35721",
        "meta_object_id": "2025-294S",
        "meta_epoch": "2025-12-19T22:00:01.999584",
        "meta_mean_motion": 15.90195539,
        "meta_eccentricity": 0.00015953,
        "meta_inclination": 43,
        "meta_ra_of_asc_node": 138.281,
        "meta_arg_of_pericenter": 278.4067,
        "meta_mean_anomaly": 229.8552,
        "meta_ephemeris_type": 0,
        "meta_classification_type": "U",
        "meta_norad_cat_id": 67046,
        "meta_element_set_no": 999,
        "meta_rev_at_epoch": 146,
        "meta_bstar": -0.0051264616,
        "meta_mean_motion_dot": -0.01408077,
        "meta_mean_motion_ddot": 0,
        "tle_line1": "1 67046U 25294S   25353.91668981 -.01408077  00000+0 -51265-2 0  9990",
        "tle_line2": "2 67046  43.0000 138.2810 0001595 278.4067 229.8552 15.90195539  1460"
      },
      "geometry": {
        "type": "Point",
        "coordinates": [
          -39.44678695335423,
          -3.9602679704347388
        ]
      }
    },
    {
      "type": "Feature",
      "properties": {
        "norad_id": 67047,
        "name": "STARLINK-35779",
        "group": "last-30-days",
        "lat": -5.616256802647524,
        "lon": -37.655491256252645,
        "alt_km": 304.9516864776697,
        "timestamp": "2025-12-20T05:41:48.745681+00:00",
        "meta_object_name": "STARLINK-35779",
        "meta_object_id": "2025-294T",
        "meta_epoch": "2025-12-19T22:00:01.999584",
        "meta_mean_motion": 15.9023851,
        "meta_eccentricity": 0.00016603,
        "meta_inclination": 42.9999,
        "meta_ra_of_asc_node": 138.2753,
        "meta_arg_of_pericenter": 278.5088,
        "meta_mean_anomaly": 232.1463,
        "meta_ephemeris_type": 0,
        "meta_classification_type": "U",
        "meta_norad_cat_id": 67047,
        "meta_element_set_no": 999,
        "meta_rev_at_epoch": 130,
        "meta_bstar": -0.0051404199,
        "meta_mean_motion_dot": -0.0141421,
        "meta_mean_motion_ddot": 0,
        "tle_line1": "1 67047U 25294T   25353.91668981 -.01414210  00000+0 -51404-2 0  9992",
        "tle_line2": "2 67047  42.9999 138.2753 0001660 278.5088 232.1463 15.90238510  1307"
      },
      "geometry": {
        "type": "Point",
        "coordinates": [
          -37.655491256252645,
          -5.616256802647524
        ]
      }
    },
    {
      "type": "Feature",
      "properties": {
        "norad_id": 67048,
        "name": "STARLINK-35905",
        "group": "last-30-days",
        "lat": -6.828016316059522,
        "lon": -36.334970840728495,
        "alt_km": 304.84915040162105,
        "timestamp": "2025-12-20T05:41:48.745691+00:00",
        "meta_object_name": "STARLINK-35905",
        "meta_object_id": "2025-294U",
        "meta_epoch": "2025-12-19T22:00:01.999584",
        "meta_mean_motion": 15.90290057,
        "meta_eccentricity": 0.00016554,
        "meta_inclination": 42.9999,
        "meta_ra_of_asc_node": 138.2709,
        "meta_arg_of_pericenter": 275.3778,
        "meta_mean_anomaly": 237.0114,
        "meta_ephemeris_type": 0,
        "meta_classification_type": "U",
        "meta_norad_cat_id": 67048,
        "meta_element_set_no": 999,
        "meta_rev_at_epoch": 138,
        "meta_bstar": -0.0051600317,
        "meta_mean_motion_dot": -0.01422203,
        "meta_mean_motion_ddot": 0,
        "tle_line1": "1 67048U 25294U   25353.91668981 -.01422203  00000+0 -51600-2 0  9992",
        "tle_line2": "2 67048  42.9999 138.2709 0001655 275.3778 237.0114 15.90290057  1383"
      },
      "geometry": {
        "type": "Point",
        "coordinates": [
          -36.334970840728495,
          -6.828016316059522
        ]
      }
    },
    {
      "type": "Feature",
      "properties": {
        "norad_id": 67049,
        "name": "STARLINK-35877",
        "group": "last-30-days",
        "lat": -8.392523877993211,
        "lon": -34.61392554239414,
        "alt_km": 304.92860282329366,
        "timestamp": "2025-12-20T05:41:48.745701+00:00",
        "meta_object_name": "STARLINK-35877",
        "meta_object_id": "2025-294V",
        "meta_epoch": "2025-12-19T22:00:01.999584",
        "meta_mean_motion": 15.90332197,
        "meta_eccentricity": 0.00016367,
        "meta_inclination": 43.0003,
        "meta_ra_of_asc_node": 138.2652,
        "meta_arg_of_pericenter": 278.0775,
        "meta_mean_anomaly": 236.5828,
        "meta_ephemeris_type": 0,
        "meta_classification_type": "U",
        "meta_norad_cat_id": 67049,
        "meta_element_set_no": 999,
        "meta_rev_at_epoch": 146,
        "meta_bstar": -0.0051554209,
        "meta_mean_motion_dot": -0.01423784,
        "meta_mean_motion_ddot": 0,
        "tle_line1": "1 67049U 25294V   25353.91668981 -.01423784  00000+0 -51554-2 0  9996",
        "tle_line2": "2 67049  43.0003 138.2652 0001636 278.0775 236.5828 15.90332197  1462"
      },
      "geometry": {
        "type": "Point",
        "coordinates": [
          -34.61392554239414,
          -8.392523877993211
        ]
      }
    },
    {
      "type": "Feature",
      "properties": {
        "norad_id": 67050,
        "name": "STARLINK-36078",
        "group": "last-30-days",
        "lat": -9.970167155751936,
        "lon": -32.85555543753676,
        "alt_km": 304.8977520655053,
        "timestamp": "2025-12-20T05:41:48.745711+00:00",
        "meta_object_name": "STARLINK-36078",
        "meta_object_id": "2025-294W",
        "meta_epoch": "2025-12-19T22:00:01.999584",
        "meta_mean_motion": 15.90378256,
        "meta_eccentricity": 0.00014906,
        "meta_inclination": 43.0001,
        "meta_ra_of_asc_node": 138.2594,
        "meta_arg_of_pericenter": 276.0266,
        "meta_mean_anomaly": 240.9324,
        "meta_ephemeris_type": 0,
        "meta_classification_type": "U",
        "meta_norad_cat_id": 67050,
        "meta_element_set_no": 999,
        "meta_rev_at_epoch": 138,
        "meta_bstar": -0.0051724516,
        "meta_mean_motion_dot": -0.01430714,
        "meta_mean_motion_ddot": 0,
        "tle_line1": "1 67050U 25294W   25353.91668981 -.01430714  00000+0 -51725-2 0  9999",
        "tle_line2": "2 67050  43.0001 138.2594 0001490 276.0266 240.9324 15.90378256  1385"
      },
      "geometry": {
        "type": "Point",
        "coordinates": [
          -32.85555543753676,
          -9.970167155751936
        ]
      }
    },
    {
      "type": "Feature",
      "properties": {
        "norad_id": 67051,
        "name": "STARLINK-35706",
        "group": "last-30-days",
        "lat": -11.54093235022944,
        "lon": -31.077499833116857,
        "alt_km": 304.85203960905073,
        "timestamp": "2025-12-20T05:41:48.745721+00:00",
        "meta_object_name": "STARLINK-35706",
        "meta_object_id": "2025-294X",
        "meta_epoch": "2025-12-19T22:00:01.999584",
        "meta_mean_motion": 15.90426839,
        "meta_eccentricity": 0.0001543,
        "meta_inclination": 43.0001,
        "meta_ra_of_asc_node": 138.2534,
        "meta_arg_of_pericenter": 274.0959,
        "meta_mean_anomaly": 245.166,
        "meta_ephemeris_type": 0,
        "meta_classification_type": "U",
        "meta_norad_cat_id": 67051,
        "meta_element_set_no": 999,
        "meta_rev_at_epoch": 146,
        "meta_bstar": -0.0051979586,
        "meta_mean_motion_dot": -0.01440034,
        "meta_mean_motion_ddot": 0,
        "tle_line1": "1 67051U 25294X   25353.91668981 -.01440034  00000+0 -51980-2 0  9999",
        "tle_line2": "2 67051  43.0001 138.2534 0001543 274.0959 245.1660 15.90426839  1466"
      },
      "geometry": {
        "type": "Point",
        "coordinates": [
          -31.077499833116857,
          -11.54093235022944
        ]
      }
    }
  ]
}